SENTINEL-6              
1 46984U 20086A   24055.16268758 -.00000032  00000+0  12451-3 0  9997
2 46984  66.0399  88.1005 0007847 270.6213  89.3903 12.80931040152340
